OBJECT_NAME,OBJECT_ID,EPOCH,MEAN_MOTION,ECCENTRICITY,INCLINATION,RA_OF_ASC_NODE,ARG_OF_PERICENTER,MEAN_ANOMALY,EPHEMERIS_TYPE,CLASSIFICATION_TYPE,NORAD_CAT_ID,ELEMENT_SET_NO,REV_AT_EPOCH,BSTAR,MEAN_MOTION_DOT,MEAN_MOTION_DDOT
AMC-11 (GE-11),2004-017A,2024-01-20T12:22:28.049088,1.00269121,.0003044,0.0365,307.5768,340.5540,265.7516,0,U,28252,999,7206,0,-.44E-6,0
ANIK F2,2004-027A,2024-01-20T11:07:41.265984,1.00271070,.00012,1.0077,91.0039,207.0246,237.0772,0,U,28378,999,3245,0,-.45E-6,0
AMC-15,2004-041A,2024-01-20T14:39:58.253760,1.00271274,.0002638,0.0368,305.3163,347.4485,301.6265,0,U,28446,999,7050,0,-.84E-6,0
NSS-10 (AMC-12),2005-003A,2024-01-20T10:53:00.657312,1.00271153,.0003147,4.2400,80.9300,213.8841,310.2890,0,U,28526,999,4434,0,-.251E-5,0
XTAR-EUR,2005-005A,2024-01-19T19:58:30.797760,1.00273497,.0005961,2.0633,87.6954,203.8810,155.7431,0,U,28542,999,6937,0,.154E-5,0
XM-3 (RHYTHM),2005-008A,2024-01-20T10:35:18.366720,1.00268763,.0000293,0.0403,220.6667,356.8980,335.4414,0,U,28626,999,3381,0,-.2E-5,0
DIRECTV 8,2005-019A,2024-01-20T14:21:39.663072,1.00271127,.0003235,0.0275,59.9266,246.3001,269.6082,0,U,28659,999,6837,0,.5E-7,0
GALAXY 28 (G-28),2005-022A,2024-01-20T11:54:55.274112,1.00271288,.0006604,1.0246,89.7187,195.7864,283.5644,0,U,28702,999,4317,0,-.181E-5,0
THAICOM 4,2005-028A,2024-01-20T13:09:42.661152,1.00267367,.0002486,0.0231,57.7769,263.3942,115.1572,0,U,28786,999,4343,0,-.358E-5,0
GALAXY 14 (G-14),2005-030A,2024-01-20T11:13:11.179200,1.00271783,.0001669,2.7478,85.6378,211.1117,23.7441,0,U,28790,999,6749,0,.156E-5,0
ANIK F1R,2005-036A,2024-01-20T14:36:45.864288,1.00271589,.0001714,2.0493,87.4653,234.0116,269.8535,0,U,28868,999,3764,0,-.72E-6,0
SYRACUSE 3A,2005-041B,2024-01-20T11:17:04.261344,1.00269416,.0003216,2.3910,86.7216,211.2695,36.8018,0,U,28885,999,6693,0,.134E-5,0
INMARSAT 4-F2,2005-044A,2024-01-20T12:41:57.708960,1.00272468,.0002294,4.0259,41.8348,264.5081,147.0224,0,U,28899,999,6671,0,-.259E-5,0
SPACEWAY 2,2005-046B,2024-01-20T13:52:46.039296,1.00270324,.0000642,3.2550,82.0035,149.4527,317.2556,0,U,28903,999,4253,0,.104E-5,0
EUTELSAT 174A,2005-052A,2024-01-20T15:36:06.785856,1.00270625,.0006308,1.9802,87.2832,214.1622,226.0531,0,U,28924,999,4352,0,.11E-6,0
ECHOSTAR 10,2006-003A,2024-01-20T14:32:38.191776,1.00270853,.0002717,0.0523,278.6287,349.4651,319.3281,0,U,28935,999,6566,0,-.5E-6,0
SPAINSAT,2006-007A,2024-01-19T18:05:15.080064,1.00272862,.0004917,0.0613,246.3662,27.7232,85.8315,0,U,28945,999,6540,0,-.211E-5,0
EUTELSAT HOTBIRD 13E,2006-007B,2024-01-20T05:58:01.479072,1.00272090,.0006337,0.0761,156.5019,128.2571,296.6549,0,U,28946,999,6551,0,.9E-6,0
ASTRA 1KR,2006-012A,2024-01-20T07:18:42.482304,1.00269690,.0004843,0.0548,273.9318,350.9301,343.1471,0,U,29055,999,3691,0,.124E-5,0
EWS-G1 (GOES 13),2006-018A,2024-01-20T13:09:42.661152,0.99155517,.0088033,2.2378,87.0713,248.5079,100.8639,0,U,29155,999,3455,0,-.224E-5,0
EUTELSAT 113 WEST A,2006-020A,2024-01-20T14:28:35.844096,1.00271882,.0003007,0.0970,107.8251,197.0872,278.6984,0,U,29162,999,6466,0,-.33E-6,0
GALAXY 16 (G-16),2006-023A,2024-01-20T14:47:11.963616,1.00271377,.0002735,0.0550,248.5495,49.1550,304.5513,0,U,29236,999,6416,0,-.122E-5,0
EUTELSAT HOTBIRD 13B,2006-032A,2024-01-20T11:13:03.659808,1.00273124,.0003782,0.0454,23.4642,278.7562,18.4396,0,U,29270,999,3849,0,.16E-5,0
KOREASAT 5 (MUGUNGWHA 5),2006-034A,2024-01-20T12:11:42.838944,1.00272127,.0001853,0.0403,241.4720,31.1935,142.6759,0,U,29349,999,3250,0,-.354E-5,0
DIRECTV 9S,2006-043A,2024-01-20T14:45:06.287904,1.00272293,.0003224,0.1459,88.9034,212.9102,297.7288,0,U,29494,999,4257,0,-.109E-5,0
